{
 "generated_at": "2026-07-06T09:00:32Z",
 "sources": [
  {
   "name": "CelesTrak",
   "url": "https://celestrak.org/NORAD/elements/",
   "license": "frei verfügbar; Attribution. Ursprünglich USSPACECOM/Space-Track."
  },
  {
   "name": "GCAT (J. McDowell, planet4589.org)",
   "url": "https://planet4589.org/space/gcat/",
   "license": "CC-BY 4.0"
  }
 ],
 "satellites": [
  {
   "norad": 32376,
   "name": "COSMO-SKYMED 2",
   "intl": "2007-059A",
   "group": "resource",
   "gcat": {
    "class": "D",
    "category": "IMG-R",
    "owner": "ASI",
    "state": "I"
   },
   "omm": {
    "OBJECT_NAME": "COSMO-SKYMED 2",
    "OBJECT_ID": "2007-059A",
    "EPOCH": "2026-07-05T15:48:50.257728",
    "MEAN_MOTION": 14.8216122,
    "ECCENTRICITY": 0.00013492,
    "INCLINATION": 97.8891,
    "RA_OF_ASC_NODE": 9.9892,
    "ARG_OF_PERICENTER": 91.3188,
    "MEAN_ANOMALY": 268.818,
    "EPHEMERIS_TYPE": 0,
    "CLASSIFICATION_TYPE": "U",
    "NORAD_CAT_ID": 32376,
    "ELEMENT_SET_NO": 999,
    "REV_AT_EPOCH": 474,
    "BSTAR": 0.000059963924,
    "MEAN_MOTION_DOT": 0.00000425,
    "MEAN_MOTION_DDOT": 0
   }
  },
  {
   "norad": 33412,
   "name": "COSMO-SKYMED 3",
   "intl": "2008-054A",
   "group": "resource",
   "gcat": {
    "class": null,
    "category": null,
    "owner": null,
    "state": null
   },
   "omm": {
    "OBJECT_NAME": "COSMO-SKYMED 3",
    "OBJECT_ID": "2008-054A",
    "EPOCH": "2026-07-05T14:26:43.145664",
    "MEAN_MOTION": 15.07077059,
    "ECCENTRICITY": 0.00149866,
    "INCLINATION": 97.8266,
    "RA_OF_ASC_NODE": 45.4767,
    "ARG_OF_PERICENTER": 198.2043,
    "MEAN_ANOMALY": 161.865,
    "EPHEMERIS_TYPE": 0,
    "CLASSIFICATION_TYPE": "U",
    "NORAD_CAT_ID": 33412,
    "ELEMENT_SET_NO": 999,
    "REV_AT_EPOCH": 95971,
    "BSTAR": 0.00024360104,
    "MEAN_MOTION_DOT": 0.00003598,
    "MEAN_MOTION_DDOT": 0
   }
  },
  {
   "norad": 37216,
   "name": "COSMO-SKYMED 4",
   "intl": "2010-060A",
   "group": "resource",
   "gcat": {
    "class": "D",
    "category": "IMG-R",
    "owner": "ASI",
    "state": "I"
   },
   "omm": {
    "OBJECT_NAME": "COSMO-SKYMED 4",
    "OBJECT_ID": "2010-060A",
    "EPOCH": "2026-07-05T16:07:04.835136",
    "MEAN_MOTION": 14.82162322,
    "ECCENTRICITY": 0.00014842,
    "INCLINATION": 97.8891,
    "RA_OF_ASC_NODE": 10.0031,
    "ARG_OF_PERICENTER": 86.4517,
    "MEAN_ANOMALY": 273.6866,
    "EPHEMERIS_TYPE": 0,
    "CLASSIFICATION_TYPE": "U",
    "NORAD_CAT_ID": 37216,
    "ELEMENT_SET_NO": 999,
    "REV_AT_EPOCH": 84730,
    "BSTAR": 0.00013227924,
    "MEAN_MOTION_DOT": 0.00001001,
    "MEAN_MOTION_DDOT": 0
   }
  },
  {
   "norad": 44873,
   "name": "CSG-1",
   "intl": "2019-092A",
   "group": "resource",
   "gcat": {
    "class": "D",
    "category": "IMG-R",
    "owner": "MDDI/ASI",
    "state": "I"
   },
   "omm": {
    "OBJECT_NAME": "CSG-1",
    "OBJECT_ID": "2019-092A",
    "EPOCH": "2026-07-05T14:48:06.398208",
    "MEAN_MOTION": 14.82145675,
    "ECCENTRICITY": 0.0001488,
    "INCLINATION": 97.8893,
    "RA_OF_ASC_NODE": 9.9526,
    "ARG_OF_PERICENTER": 90.8141,
    "MEAN_ANOMALY": 269.3242,
    "EPHEMERIS_TYPE": 0,
    "CLASSIFICATION_TYPE": "U",
    "NORAD_CAT_ID": 44873,
    "ELEMENT_SET_NO": 999,
    "REV_AT_EPOCH": 35420,
    "BSTAR": 0.000049274,
    "MEAN_MOTION_DOT": 0.0000034,
    "MEAN_MOTION_DDOT": 0
   }
  },
  {
   "norad": 51444,
   "name": "CSG-2",
   "intl": "2022-008A",
   "group": "resource",
   "gcat": {
    "class": "D",
    "category": "IMG-R",
    "owner": "MDDI/ASI",
    "state": "I"
   },
   "omm": {
    "OBJECT_NAME": "CSG-2",
    "OBJECT_ID": "2022-008A",
    "EPOCH": "2026-07-05T15:36:40.794624",
    "MEAN_MOTION": 14.82156516,
    "ECCENTRICITY": 0.00015299,
    "INCLINATION": 97.8889,
    "RA_OF_ASC_NODE": 9.9799,
    "ARG_OF_PERICENTER": 84.6748,
    "MEAN_ANOMALY": 275.464,
    "EPHEMERIS_TYPE": 0,
    "CLASSIFICATION_TYPE": "U",
    "NORAD_CAT_ID": 51444,
    "ELEMENT_SET_NO": 999,
    "REV_AT_EPOCH": 23932,
    "BSTAR": 0.000031151133,
    "MEAN_MOTION_DOT": 0.00000196,
    "MEAN_MOTION_DDOT": 0
   }
  },
  {
   "norad": 67304,
   "name": "CSG-3",
   "intl": "2026-001A",
   "group": "resource",
   "gcat": {
    "class": "D",
    "category": "IMG-R",
    "owner": "MDDI/ASI",
    "state": "I"
   },
   "omm": {
    "OBJECT_NAME": "CSG-3",
    "OBJECT_ID": "2026-001A",
    "EPOCH": "2026-07-05T11:51:54.010368",
    "MEAN_MOTION": 14.82148233,
    "ECCENTRICITY": 0.0001432,
    "INCLINATION": 97.8892,
    "RA_OF_ASC_NODE": 9.8313,
    "ARG_OF_PERICENTER": 91.4874,
    "MEAN_ANOMALY": 268.6503,
    "EPHEMERIS_TYPE": 0,
    "CLASSIFICATION_TYPE": "U",
    "NORAD_CAT_ID": 67304,
    "ELEMENT_SET_NO": 999,
    "REV_AT_EPOCH": 2717,
    "BSTAR": 0.000080255,
    "MEAN_MOTION_DOT": 0.00000587,
    "MEAN_MOTION_DDOT": 0
   }
  },
  {
   "norad": 41887,
   "name": "CYGFM01",
   "intl": "2016-078D",
   "group": "weather",
   "gcat": {
    "class": "C",
    "category": "EOSCI",
    "owner": "LARCN/SWRIB",
    "state": "US"
   },
   "omm": {
    "OBJECT_NAME": "CYGFM01",
    "OBJECT_ID": "2016-078D",
    "EPOCH": "2026-07-05T05:46:29.000352",
    "MEAN_MOTION": 15.5819735,
    "ECCENTRICITY": 0.0007729,
    "INCLINATION": 34.9394,
    "RA_OF_ASC_NODE": 141.8798,
    "ARG_OF_PERICENTER": 300.8681,
    "MEAN_ANOMALY": 59.1284,
    "EPHEMERIS_TYPE": 0,
    "CLASSIFICATION_TYPE": "U",
    "NORAD_CAT_ID": 41887,
    "ELEMENT_SET_NO": 999,
    "REV_AT_EPOCH": 53152,
    "BSTAR": 0.0004773,
    "MEAN_MOTION_DOT": 0.00037427,
    "MEAN_MOTION_DDOT": 0
   }
  },
  {
   "norad": 41886,
   "name": "CYGFM02",
   "intl": "2016-078C",
   "group": "weather",
   "gcat": {
    "class": "C",
    "category": "EOSCI",
    "owner": "LARCN/SWRIB",
    "state": "US"
   },
   "omm": {
    "OBJECT_NAME": "CYGFM02",
    "OBJECT_ID": "2016-078C",
    "EPOCH": "2026-07-05T04:51:07.130304",
    "MEAN_MOTION": 15.65774539,
    "ECCENTRICITY": 0.0006919,
    "INCLINATION": 34.9401,
    "RA_OF_ASC_NODE": 101.9852,
    "ARG_OF_PERICENTER": 345.4932,
    "MEAN_ANOMALY": 14.5595,
    "EPHEMERIS_TYPE": 0,
    "CLASSIFICATION_TYPE": "U",
    "NORAD_CAT_ID": 41886,
    "ELEMENT_SET_NO": 999,
    "REV_AT_EPOCH": 53199,
    "BSTAR": 0.00054085,
    "MEAN_MOTION_DOT": 0.0005714,
    "MEAN_MOTION_DDOT": 0
   }
  },
  {
   "norad": 41891,
   "name": "CYGFM03",
   "intl": "2016-078H",
   "group": "weather",
   "gcat": {
    "class": "C",
    "category": "EOSCI",
    "owner": "LARCN/SWRIB",
    "state": "US"
   },
   "omm": {
    "OBJECT_NAME": "CYGFM03",
    "OBJECT_ID": "2016-078H",
    "EPOCH": "2026-07-05T05:24:41.904000",
    "MEAN_MOTION": 15.61107669,
    "ECCENTRICITY": 0.0006439,
    "INCLINATION": 34.9397,
    "RA_OF_ASC_NODE": 111.3315,
    "ARG_OF_PERICENTER": 329.4859,
    "MEAN_ANOMALY": 30.5491,
    "EPHEMERIS_TYPE": 0,
    "CLASSIFICATION_TYPE": "U",
    "NORAD_CAT_ID": 41891,
    "ELEMENT_SET_NO": 999,
    "REV_AT_EPOCH": 53179,
    "BSTAR": 0.00050354,
    "MEAN_MOTION_DOT": 0.00044161,
    "MEAN_MOTION_DDOT": 0
   }
  }
 ]
}
