COSMO-SKYMED 2          
1 32376U 07059A   26186.65891502  .00000425  00000+0  59964-4 0  9998
2 32376  97.8891   9.9892 0001349  91.3188 268.8180 14.82161220  4744
COSMO-SKYMED 3          
1 33412U 08054A   26186.60188826  .00003598  00000+0  24360-3 0  9994
2 33412  97.8266  45.4767 0014986 198.2043 161.8650 15.07077059959710
COSMO-SKYMED 4          
1 37216U 10060A   26186.67158374  .00001001  00000+0  13228-3 0  9990
2 37216  97.8891  10.0031 0001484  86.4517 273.6866 14.82162322847307
CYGFM02                 
1 41886U 16078C   26186.20216586  .00057140  00000+0  54085-3 0  9993
2 41886  34.9401 101.9852 0006919 345.4932  14.5595 15.65774539531999
CYGFM01                 
1 41887U 16078D   26186.24061343  .00037427  00000+0  47730-3 0  9992
2 41887  34.9394 141.8798 0007728 300.8681  59.1284 15.58197350531529
CYGFM03                 
1 41891U 16078H   26186.22548501  .00044161  00000+0  50354-3 0  9990
2 41891  34.9397 111.3315 0006438 329.4859  30.5491 15.61107669531795
CSG-1                   
1 44873U 19092A   26186.61674072  .00000340  00000+0  49274-4 0  9999
2 44873  97.8893   9.9526 0001488  90.8141 269.3242 14.82145675354202
CSG-2                   
1 51444U 22008A   26186.65047216  .00000196  00000+0  31151-4 0  9994
2 51444  97.8889   9.9799 0001529  84.6748 275.4640 14.82156516239322
CSG-3                   
1 67304U 26001A   26186.49437512  .00000587  00000+0  80255-4 0  9990
2 67304  97.8892   9.8313 0001431  91.4874 268.6503 14.82148233 27174
